[
    {
        "Altitude(m)": 617710.7019561696,
        "Argument of Periapsis(deg)": 0.0,
        "Eccentricity": 0.0,
        "Inclination(deg)": 60.0,
        "Latitude(deg)": -41.10282878750029,
        "Longitude(deg)": -60.03330319825895,
        "Mean Anomaly(deg)": -49.09089999999992,
        "RAAN(deg)": 70.0,
        "Satellite Name": "Test1 327",
        "Satellite Number": 327,
        "Semi-Major Axis(m)": 6980739.136638005,
        "Time(s)": 0
    },
    {
        "Altitude(m)": 617518.000052114,
        "Argument of Periapsis(deg)": 0.00010418945913296404,
        "Eccentricity": 0.0,
        "Inclination(deg)": 60.0,
        "Latitude(deg)": -40.63703508382741,
        "Longitude(deg)": -59.53650943573923,
        "Mean Anomaly(deg)": -48.47079385453808,
        "RAAN(deg)": 69.99957995086027,
        "Satellite Name": "Test1 327",
        "Satellite Number": 327,
        "Semi-Major Axis(m)": 6980739.136638005,
        "Time(s)": 10
    }
]